ONEWEB-0230             
1 48769U 21045C   26157.51671929  .00000177  00000+0  43729-3 0  9999
2 48769  87.9000 261.3297 0002079  96.9824 263.1543 13.15547952243269
ONEWEB-0237             
1 48770U 21045D   26157.58166987  .00000233  00000+0  58538-3 0  9998
2 48770  87.8999 261.3186 0001670  98.4692 261.6628 13.15551057242997
ONEWEB-0235             
1 48771U 21045E   26157.55633343 -.00000071  00000+0 -22257-3 0  9992
2 48771  87.9008 261.3084 0001511 102.3208 257.8091 13.15547855242980
ONEWEB-0242             
1 48772U 21045F   26157.54999814  .00000025  00000+0  33070-4 0  9993
2 48772  87.9011 261.3062 0001806  96.4502 263.6834 13.15548531243026
ONEWEB-0241             
1 48773U 21045G   26157.53732455 -.00000063  00000+0 -20103-3 0  9995
2 48773  87.9000 261.3281 0001615 110.6443 249.4860 13.15547962242936
ONEWEB-0243             
1 48774U 21045H   26157.56900867  .00000128  00000+0  30681-3 0  9995
2 48774  87.9000 261.3341 0001607  87.4277 272.7038 13.15548318242966
ONEWEB-0222             
1 48775U 21045J   26157.55236884 -.00000032  00000+0 -11923-3 0  9990
2 48775  87.9014 261.3044 0001718 103.9289 256.2032 13.15548477243005
ONEWEB-0244             
1 48776U 21045K   26157.57851616  .00000167  00000+0  41052-3 0  9992
2 48776  87.9014 261.2931 0001784  99.5858 260.5474 13.15548381243579
ONEWEB-0247             
1 48777U 21045L   26157.57533317  .00000185  00000+0  45719-3 0  9992
2 48777  87.9001 261.3275 0001166  86.6942 273.4322 13.15546732243015
ONEWEB-0245             
1 48778U 21045M   26157.57058731 -.00000080  00000+0 -24672-3 0  9996
2 48778  87.9006 261.3069 0001861 105.6903 254.4433 13.15550215242981
ONEWEB-0229             
1 48779U 21045N   26157.56583843  .00000060  00000+0  12586-3 0  9990
2 48779  87.9009 261.3054 0001867  97.2262 262.9080 13.15548246243017
ONEWEB-0228             
1 48780U 21045P   26157.52317991  .00000066  00000+0  14091-3 0  9996
2 48780  87.9016 261.3058 0001796 101.2493 258.8839 13.15550909242928
ONEWEB-0232             
1 48781U 21045Q   26157.57375845  .00000135  00000+0  32559-3 0  9990
2 48781  87.9011 261.2972 0001915 103.3033 256.8311 13.15550349243252
ONEWEB-0231             
1 48782U 21045R   26157.55157185 -.00000042  00000+0 -14444-3 0  9996
2 48782  87.9006 261.3154 0001696 102.7970 257.3349 13.15548700242949
ONEWEB-0234             
1 48783U 21045S   26156.82889821  .00000050  00000+0  99567-4 0  9992
2 48783  87.9007 261.4403 0002445 117.9807 242.1571 13.15548179242982
ONEWEB-0238             
1 48784U 21045T   26156.82916504  .00000099  00000+0  22965-3 0  9992
2 48784  87.9017 261.4346 0002220 111.0955 249.0413 13.15550285242881
ONEWEB-0240             
1 48785U 21045U   26157.53492682 -.00000223  00000+0 -62561-3 0  9995
2 48785  87.9023 261.3039 0001683 108.9451 251.1861 13.15548636243008
ONEWEB-0246             
1 48786U 21045V   26156.84488287 -.00000005  00000+0 -48027-4 0  9995
2 48786  87.9005 261.4459 0001845  97.1824 262.9516 13.15549005242781
ONEWEB-0210             
1 48787U 21045W   26157.58009806  .00000131  00000+0  31473-3 0  9998
2 48787  87.9013 261.2970 0001384  76.5975 283.5310 13.15550123242923
ONEWEB-0214             
1 48788U 21045X   26157.58881321  .00000247  00000+0  62329-3 0  9991
2 48788  87.9012 261.2918 0001949  89.4759 270.6594 13.15548700242890
ONEWEB-0221             
1 48789U 21045Y   26157.51988574  .00000206  00000+0  51376-3 0  9998
2 48789  87.9012 261.3142 0001805 102.5539 257.5793 13.15548352242972
ONEWEB-0213             
1 48790U 21045Z   26157.58483537  .00000255  00000+0  64294-3 0  9993
2 48790  87.9010 261.3047 0001683  98.3294 261.8027 13.15551023243046
ONEWEB-0212             
1 48791U 21045AA  26157.56188252  .00000048  00000+0  93206-4 0  9994
2 48791  87.9008 261.3037 0001933 102.0802 258.0545 13.15549162243032
ONEWEB-0227             
1 48792U 21045AB  26157.56108924 -.00000049  00000+0 -16358-3 0  9998
2 48792  87.9006 261.3048 0001900 102.0768 258.0575 13.15548492242989
ONEWEB-0226             
1 48793U 21045AC  26157.55474561 -.00000057  00000+0 -18438-3 0  9991
2 48793  87.9003 261.3111 0001722  95.8884 264.2443 13.15549960242959
ONEWEB-0224             
1 48794U 21045AD  26157.51828803  .00000191  00000+0  47430-3 0  9991
2 48794  87.9001 261.3526 0001967 127.0022 233.1288 13.15550955242870
ONEWEB-0233             
1 48795U 21045AE  26157.59897359  .00000100  00000+0  23091-3 0  9999
2 48795  87.9000 261.3436 0001707 107.5447 252.5870 13.15547863242906
ONEWEB-0190             
1 48796U 21045AF  26157.58641863  .00000245  00000+0  61682-3 0  9994
2 48796  87.9000 261.3084 0001215  98.3482 261.7786 13.15551337242972
ONEWEB-0236             
1 48797U 21045AG  26157.52780986  .00000039  00000+0  68829-4 0  9991
2 48797  87.9000 261.3300 0002046 103.6251 256.5107 13.15548011242852
ONEWEB-0248             
1 48798U 21045AH  26157.54047117 -.00000057  00000+0 -18643-3 0  9996
2 48798  87.9011 261.3098 0001504 110.5890 249.5402 13.15547378243017
